INMARSAT 4-F3           
1 33278U 08039A   26162.67506019 -.00000127  00000+0  00000+0 0  9993
2 33278   4.2885  31.6117 0002822  53.2521 320.1640  1.00271785 46493
NIMIQ 4                 
1 33373U 08044A   26162.89213142 -.00000204  00000+0  00000+0 0  9997
2 33373   0.0189 307.6657 0001993 138.9120  52.7979  1.00268994 64939
GALAXY 19 (G-19)        
1 33376U 08045A   26162.67523352 -.00000122  00000+0  00000+0 0  9993
2 33376   0.0161 301.8034 0002580 139.9841 324.3216  1.00270649 64843
ASTRA 1M                
1 33436U 08057A   26162.91214833  .00000136  00000+0  00000+0 0  9995
2 33436   0.2822  82.3783 0004656  21.3381 144.2839  1.00269447 45682
EUTELSAT HOTBIRD 13C    
1 33459U 08065A   26162.89819811 -.00000268  00000+0  00000+0 0  9990
2 33459   2.9361  79.2518 0003345   1.2706  92.7635  1.00272949 47298
EXPRESS-AM44            
1 33595U 09007A   26162.90616831 -.00000075  00000+0  00000+0 0  9993
2 33595   3.4487  78.4625 0004074 356.9764 140.0270  1.00271350 52235
NSS-9                   
1 33749U 09008A   26162.80206086  .00000088  00000+0  00000+0 0  9994
2 33749   1.2472  82.7051 0001952 347.0439 302.2029  1.00272144 63462
TELSTAR 11N             
1 34111U 09009A   26162.90091963 -.00000235  00000+0  00000+0 0  9991
2 34111   0.0044  68.3051 0002175  12.0299 106.6820  1.00269585 46190
WGS F2 (USA 204)        
1 34713U 09017A   26162.91976733  .00000084  00000+0  00000+0 0  9997
2 34713   0.0174 336.9628 0000517 270.3723  41.5544  1.00268958 45568
SES-7 (PROTOSTAR 2)     
1 34941U 09027A   26162.92982071 -.00000329  00000+0  00000+0 0  9997
2 34941   0.0492  74.4759 0000565 269.1760 359.6159  1.00273481 62575
MEASAT-3A               
1 35362U 09032A   26162.86871041 -.00000094  00000+0  00000+0 0  9997
2 35362   0.0277  20.0825 0002866  57.6623 295.2035  1.00271245  7976
GOES 14                 
1 35491U 09033A   26162.93701407 -.00000255  00000+0  00000+0 0  9996
2 35491   1.6758  83.1042 0001781   8.7469 290.5986  1.00112587  6538
FM-5                    
1 35493U 09034A   26162.89126475 -.00000184  00000+0  00000+0 0  9991
2 35493   0.0158 297.9949 0000763   0.6841 196.2587  1.00270980 46593
TERRESTAR-1             
1 35496U 09035A   26162.67246017 -.00000043  00000+0  00000+0 0  9990
2 35496   5.1746  48.8037 0002679  24.2631 318.0145  1.00271487 62071
ASIASAT 5               
1 35696U 09042A   26162.92976473 -.00000291  00000+0  00000+0 0  9999
2 35696   0.0243 291.0205 0001591 136.3112 268.1463  1.00269346 61651
JCSAT-12 (JCSAT-RA)     
1 35755U 09044A   26162.93450073 -.00000312  00000+0  00000+0 0  9995
2 35755   0.0106  17.5306 0000729 302.7037  48.5042  1.00270488 61556
OPTUS D3                
1 35756U 09044B   26162.86793041 -.00000129  00000+0  00000+0 0  9999
2 35756   0.8694 269.3982 0002859 169.7212 289.6871  1.00270916 61516
NIMIQ 5                 
1 35873U 09050A   26162.89395142 -.00000241  00000+0  00000+0 0  9994
2 35873   0.0253 282.4427 0002690 153.5721  73.3513  1.00271946 61298
AMAZONAS 2              
1 35942U 09054A   26162.89412476 -.00000244  00000+0  00000+0 0  9998
2 35942   1.8012  83.1150 0003241 354.2540  72.7652  1.00270481 61131
COMSATBW-1              
1 35943U 09054B   26162.92080734  .00000040  00000+0  00000+0 0  9994
2 35943   0.0680  77.3542 0002815   9.2907 208.1141  1.00272124 61251
NSS-12                  
1 36032U 09058A   26162.92989855  .00000088  00000+0  00000+0 0  9992
2 36032   0.0763  67.2408 0004596 342.3119 242.4725  1.00271474 60868
THOR 6                  
1 36033U 09058B   26162.69430027  .00000000  00000+0  00000+0 0  9993
2 36033   0.0147 327.3329 0002243 152.3315  29.4631  1.00271016 60952
INTELSAT 14 (IS-14)     
1 36097U 09064A   26162.96904781 -.00000257  00000+0  00000+0 0  9998
2 36097   0.0157   7.2116 0002228  65.4335 131.5354  1.00271894 60557
EUTELSAT 36B            
1 36101U 09065A   26162.91829399  .00000128  00000+0  00000+0 0  9997
2 36101   0.4773  81.0397 0005869 358.5108 201.7761  1.00271767 60652
INTELSAT 15 (IS-15)     
1 36106U 09067A   26162.92522736 -.00000169  00000+0  00000+0 0  9996
2 36106   0.0101  20.9791 0002102  63.3508 234.1673  1.00271426 41170
WGS F3 (USA 211)        
1 36108U 09068A   26162.66873348  .00000080  00000+0  00000+0 0  9999
2 36108   0.3303  85.7756 0000156 329.2306 315.7721  1.00271342 46538
DIRECTV 12              
1 36131U 09075A   26162.88797140 -.00000087  00000+0  00000+0 0  9990
2 36131   0.0121 100.1334 0000402 280.7312  96.3074  1.00269834 46508
BEIDOU-2 G1             
1 36287U 10001A   26162.93614741 -.00000266  00000+0  00000+0 0  9993
2 36287   4.2798  60.4236 0002422 303.6098  13.7322  1.00272711 60115
SDO                     
1 36395U 10005A   26162.29141986 -.00000074  00000+0  00000+0 0  9999
2 36395  34.6389  86.4327 0001607  52.7574 123.3287  1.00270396 60005
INTELSAT 16 (IS-16)     
1 36397U 10006A   26162.89325809 -.00000228  00000+0  00000+0 0  9997
2 36397   0.0098 324.4405 0001888 133.3612  47.8103  1.00271325 59607
EWS-G2 (GOES 15)        
1 36411U 10008A   26162.92098067  .00000034  00000+0  00000+0 0  9997
2 36411   1.2626  82.9393 0005379  40.6032 171.9199  1.00275533 59587
ECHOSTAR 14             
1 36499U 10010A   26162.74217660  .00000017  00000+0  00000+0 0  9999
2 36499   0.0550  89.4924 0002343  10.5698 308.3142  1.00272178 46492
