OBJECT_NAME,OBJECT_ID,EPOCH,MEAN_MOTION,ECCENTRICITY,INCLINATION,RA_OF_ASC_NODE,ARG_OF_PERICENTER,MEAN_ANOMALY,EPHEMERIS_TYPE,CLASSIFICATION_TYPE,NORAD_CAT_ID,ELEMENT_SET_NO,REV_AT_EPOCH,BSTAR,MEAN_MOTION_DOT,MEAN_MOTION_DDOT
INMARSAT 4-F3,2008-039A,2026-06-11T16:12:05.200416,1.00271785,.0002822,4.2885,31.6117,53.2521,320.1640,0,U,33278,999,4649,0,-.127E-5,0
NIMIQ 4,2008-044A,2026-06-11T21:24:40.154688,1.00268994,.00019932,0.0189,307.6657,138.9120,52.7979,0,U,33373,999,6493,0,-.204E-5,0
GALAXY 19 (G-19),2008-045A,2026-06-11T16:12:20.176128,1.00270649,.00025806,0.0161,301.8034,139.9841,324.3216,0,U,33376,999,6484,0,-.122E-5,0
ASTRA 1M,2008-057A,2026-06-11T21:53:29.615712,1.00269447,.00046562,0.2822,82.3783,21.3381,144.2839,0,U,33436,999,4568,0,.136E-5,0
EUTELSAT HOTBIRD 13C,2008-065A,2026-06-11T21:33:24.316704,1.00272949,.00033451,2.9361,79.2518,1.2706,92.7635,0,U,33459,999,4729,0,-.268E-5,0
EXPRESS-AM44,2009-007A,2026-06-11T21:44:52.941984,1.00271350,.00040744,3.4487,78.4625,356.9764,140.0270,0,U,33595,999,5223,0,-.75E-6,0
NSS-9,2009-008A,2026-06-11T19:14:58.058304,1.00272144,.0001952,1.2472,82.7051,347.0439,302.2029,0,U,33749,999,6346,0,.88E-6,0
TELSTAR 11N,2009-009A,2026-06-11T21:37:19.456032,1.00269585,.00021757,0.0044,68.3051,12.0299,106.6820,0,U,34111,999,4619,0,-.235E-5,0
WGS F2 (USA 204),2009-017A,2026-06-11T22:04:27.897312,1.00268958,.00005178,0.0174,336.9628,270.3723,41.5544,0,U,34713,999,4556,0,.84E-6,0
SES-7 (PROTOSTAR 2),2009-027A,2026-06-11T22:18:56.509344,1.00273481,.00005655,0.0492,74.4759,269.1760,359.6159,0,U,34941,999,6257,0,-.329E-5,0
MEASAT-3A,2009-032A,2026-06-11T20:50:56.579424,1.00271245,.00028664,0.0277,20.0825,57.6623,295.2035,0,U,35362,999,797,0,-.94E-6,0
GOES 14,2009-033A,2026-06-11T22:29:18.015648,1.00112587,.00017813,1.6758,83.1042,8.7469,290.5986,0,U,35491,999,653,0,-.255E-5,0
FM-5,2009-034A,2026-06-11T21:23:25.274400,1.00270980,.00007631,0.0158,297.9949,0.6841,196.2587,0,U,35493,999,4659,0,-.184E-5,0
TERRESTAR-1,2009-035A,2026-06-11T16:08:20.558688,1.00271487,.00026792,5.1746,48.8037,24.2631,318.0145,0,U,35496,999,6207,0,-.43E-6,0
ASIASAT 5,2009-042A,2026-06-11T22:18:51.672672,1.00269346,.00015918,0.0243,291.0205,136.3112,268.1463,0,U,35696,999,6165,0,-.291E-5,0
JCSAT-12 (JCSAT-RA),2009-044A,2026-06-11T22:25:40.863072,1.00270488,.0000729,0.0106,17.5306,302.7037,48.5042,0,U,35755,999,6155,0,-.312E-5,0
OPTUS D3,2009-044B,2026-06-11T20:49:49.187424,1.00270916,.0002859,0.8694,269.3982,169.7212,289.6871,0,U,35756,999,6151,0,-.129E-5,0
NIMIQ 5,2009-050A,2026-06-11T21:27:17.402688,1.00271946,.00026907,0.0253,282.4427,153.5721,73.3513,0,U,35873,999,6129,0,-.241E-5,0
AMAZONAS 2,2009-054A,2026-06-11T21:27:32.379264,1.00270481,.0003241,1.8012,83.1150,354.2540,72.7652,0,U,35942,999,6113,0,-.244E-5,0
COMSATBW-1,2009-054B,2026-06-11T22:05:57.754176,1.00272124,.00028157,0.0680,77.3542,9.2907,208.1141,0,U,35943,999,6125,0,.4E-6,0
NSS-12,2009-058A,2026-06-11T22:19:03.234720,1.00271474,.00045965,0.0763,67.2408,342.3119,242.4725,0,U,36032,999,6086,0,.88E-6,0
THOR 6,2009-058B,2026-06-11T16:39:47.543328,1.00271016,.00022438,0.0147,327.3329,152.3315,29.4631,0,U,36033,999,6095,0,0,0
INTELSAT 14 (IS-14),2009-064A,2026-06-11T23:15:25.730784,1.00271894,.00022283,0.0157,7.2116,65.4335,131.5354,0,U,36097,999,6055,0,-.257E-5,0
EUTELSAT 36B,2009-065A,2026-06-11T22:02:20.600736,1.00271767,.00058692,0.4773,81.0397,358.5108,201.7761,0,U,36101,999,6065,0,.128E-5,0
INTELSAT 15 (IS-15),2009-067A,2026-06-11T22:12:19.643904,1.00271426,.00021029,0.0101,20.9791,63.3508,234.1673,0,U,36106,999,4117,0,-.169E-5,0
WGS F3 (USA 211),2009-068A,2026-06-11T16:02:58.572672,1.00271342,.00001569,0.3303,85.7756,329.2306,315.7721,0,U,36108,999,4653,0,.8E-6,0
DIRECTV 12,2009-075A,2026-06-11T21:18:40.728960,1.00269834,.00004025,0.0121,100.1334,280.7312,96.3074,0,U,36131,999,4650,0,-.87E-6,0
BEIDOU-2 G1,2010-001A,2026-06-11T22:28:03.136224,1.00272711,.00024223,4.2798,60.4236,303.6098,13.7322,0,U,36287,999,6011,0,-.266E-5,0
SDO,2010-005A,2026-06-11T06:59:38.675904,1.00270396,.0001607,34.6389,86.4327,52.7574,123.3287,0,U,36395,999,6000,0,-.74E-6,0
INTELSAT 16 (IS-16),2010-006A,2026-06-11T21:26:17.498976,1.00271325,.00018889,0.0098,324.4405,133.3612,47.8103,0,U,36397,999,5960,0,-.228E-5,0
EWS-G2 (GOES 15),2010-008A,2026-06-11T22:06:12.729888,1.00275533,.00053797,1.2626,82.9393,40.6032,171.9199,0,U,36411,999,5958,0,.34E-6,0
ECHOSTAR 14,2010-010A,2026-06-11T17:48:44.058240,1.00272178,.00023435,0.0550,89.4924,10.5698,308.3142,0,U,36499,999,4649,0,.17E-6,0
